{
  "type": "FeatureCollection",
  "features": [
    {
      "type": "Feature",
      "properties": {
        "norad_id": 35616,
        "name": "IRIDIUM 33 DEB",
        "group": "iridium-33-debris",
        "lat": 64.75243769409624,
        "lon": 153.8640274660613,
        "alt_km": 609.3560710889114,
        "timestamp": "2025-12-21T18:54:58.881151+00:00",
        "meta_object_name": "IRIDIUM 33 DEB",
        "meta_object_id": "1997-051QN",
        "meta_epoch": "2025-12-19T06:26:26.767968",
        "meta_mean_motion": 14.81969913,
        "meta_eccentricity": 0.0011079,
        "meta_inclination": 86.3543,
        "meta_ra_of_asc_node": 342.7845,
        "meta_arg_of_pericenter": 141.4908,
        "meta_mean_anomaly": 218.7107,
        "meta_ephemeris_type": 0,
        "meta_classification_type": "U",
        "meta_norad_cat_id": 35616,
        "meta_element_set_no": 999,
        "meta_rev_at_epoch": 87671,
        "meta_bstar": 0.0011657,
        "meta_mean_motion_dot": 9.278e-05,
        "meta_mean_motion_ddot": 0,
        "tle_line1": "1 35616U 97051QN  25353.26836537  .00009278  00000+0  11657-2 0  9998",
        "tle_line2": "2 35616  86.3543 342.7845 0011079 141.4908 218.7107 14.81969913876716"
      },
      "geometry": {
        "type": "Point",
        "coordinates": [
          153.8640274660613,
          64.75243769409624
        ]
      }
    },
    {
      "type": "Feature",
      "properties": {
        "norad_id": 35618,
        "name": "IRIDIUM 33 DEB",
        "group": "iridium-33-debris",
        "lat": -2.34552240635078,
        "lon": -10.60742376540177,
        "alt_km": 701.2762030228587,
        "timestamp": "2025-12-21T18:54:58.881161+00:00",
        "meta_object_name": "IRIDIUM 33 DEB",
        "meta_object_id": "1997-051QQ",
        "meta_epoch": "2025-12-19T17:19:11.303040",
        "meta_mean_motion": 14.52324389,
        "meta_eccentricity": 0.0028534,
        "meta_inclination": 86.3402,
        "meta_ra_of_asc_node": 350.4461,
        "meta_arg_of_pericenter": 358.9008,
        "meta_mean_anomaly": 1.213,
        "meta_ephemeris_type": 0,
        "meta_classification_type": "U",
        "meta_norad_cat_id": 35618,
        "meta_element_set_no": 999,
        "meta_rev_at_epoch": 65495,
        "meta_bstar": 0.00034507,
        "meta_mean_motion_dot": 1.431e-05,
        "meta_mean_motion_ddot": 0,
        "tle_line1": "1 35618U 97051QQ  25353.72165860  .00001431  00000+0  34507-3 0  9998",
        "tle_line2": "2 35618  86.3402 350.4461 0028534 358.9008   1.2130 14.52324389654953"
      },
      "geometry": {
        "type": "Point",
        "coordinates": [
          -10.60742376540177,
          -2.34552240635078
        ]
      }
    },
    {
      "type": "Feature",
      "properties": {
        "norad_id": 35620,
        "name": "IRIDIUM 33 DEB",
        "group": "iridium-33-debris",
        "lat": -61.479516860460585,
        "lon": 40.30753060826626,
        "alt_km": 673.9686099066103,
        "timestamp": "2025-12-21T18:54:58.881171+00:00",
        "meta_object_name": "IRIDIUM 33 DEB",
        "meta_object_id": "1997-051QS",
        "meta_epoch": "2025-12-18T07:58:30.597312",
        "meta_mean_motion": 14.38231155,
        "meta_eccentricity": 0.01396071,
        "meta_inclination": 86.3909,
        "meta_ra_of_asc_node": 215.0948,
        "meta_arg_of_pericenter": 240.37,
        "meta_mean_anomaly": 118.3533,
        "meta_ephemeris_type": 0,
        "meta_classification_type": "U",
        "meta_norad_cat_id": 35620,
        "meta_element_set_no": 999,
        "meta_rev_at_epoch": 60046,
        "meta_bstar": 0.0042608437,
        "meta_mean_motion_dot": 0.00014532,
        "meta_mean_motion_ddot": 0,
        "tle_line1": "1 35620U 97051QS  25352.33229858  .00014532  00000+0  42608-2 0  9991",
        "tle_line2": "2 35620  86.3909 215.0948 0139607 240.3700 118.3533 14.38231155600467"
      },
      "geometry": {
        "type": "Point",
        "coordinates": [
          40.30753060826626,
          -61.479516860460585
        ]
      }
    },
    {
      "type": "Feature",
      "properties": {
        "norad_id": 35622,
        "name": "IRIDIUM 33 DEB",
        "group": "iridium-33-debris",
        "lat": -14.203077877019451,
        "lon": -101.82101780273432,
        "alt_km": 552.5094106862198,
        "timestamp": "2025-12-21T18:54:58.881182+00:00",
        "meta_object_name": "IRIDIUM 33 DEB",
        "meta_object_id": "1997-051QU",
        "meta_epoch": "2025-12-19T11:54:56.844000",
        "meta_mean_motion": 15.05408021,
        "meta_eccentricity": 0.0004407,
        "meta_inclination": 86.2028,
        "meta_ra_of_asc_node": 260.2723,
        "meta_arg_of_pericenter": 304.7604,
        "meta_mean_anomaly": 228.959,
        "meta_ephemeris_type": 0,
        "meta_classification_type": "U",
        "meta_norad_cat_id": 35622,
        "meta_element_set_no": 999,
        "meta_rev_at_epoch": 87461,
        "meta_bstar": 0.0027287,
        "meta_mean_motion_dot": 0.00039327,
        "meta_mean_motion_ddot": 0,
        "tle_line1": "1 35622U 97051QU  25353.49649125  .00039327  00000+0  27287-2 0  9999",
        "tle_line2": "2 35622  86.2028 260.2723 0004407 304.7604 228.9590 15.05408021874614"
      },
      "geometry": {
        "type": "Point",
        "coordinates": [
          -101.82101780273432,
          -14.203077877019451
        ]
      }
    },
    {
      "type": "Feature",
      "properties": {
        "norad_id": 35628,
        "name": "IRIDIUM 33 DEB",
        "group": "iridium-33-debris",
        "lat": 33.52338188975897,
        "lon": 7.45888719383787,
        "alt_km": 665.805020963433,
        "timestamp": "2025-12-21T18:54:58.881192+00:00",
        "meta_object_name": "IRIDIUM 33 DEB",
        "meta_object_id": "1997-051RA",
        "meta_epoch": "2025-12-20T06:45:55.793664",
        "meta_mean_motion": 14.67680924,
        "meta_eccentricity": 0.00096368,
        "meta_inclination": 86.3562,
        "meta_ra_of_asc_node": 5.7112,
        "meta_arg_of_pericenter": 314.2717,
        "meta_mean_anomaly": 45.7705,
        "meta_ephemeris_type": 0,
        "meta_classification_type": "U",
        "meta_norad_cat_id": 35628,
        "meta_element_set_no": 999,
        "meta_rev_at_epoch": 86557,
        "meta_bstar": 0.00085133469,
        "meta_mean_motion_dot": 4.868e-05,
        "meta_mean_motion_ddot": 0,
        "tle_line1": "1 35628U 97051RA  25354.28189576  .00004868  00000+0  85133-3 0  9999",
        "tle_line2": "2 35628  86.3562   5.7112 0009636 314.2717  45.7705 14.67680924865577"
      },
      "geometry": {
        "type": "Point",
        "coordinates": [
          7.45888719383787,
          33.52338188975897
        ]
      }
    },
    {
      "type": "Feature",
      "properties": {
        "norad_id": 35631,
        "name": "IRIDIUM 33 DEB",
        "group": "iridium-33-debris",
        "lat": -11.64245889756121,
        "lon": 16.328707297650265,
        "alt_km": 741.7552337244742,
        "timestamp": "2025-12-21T18:54:58.881206+00:00",
        "meta_object_name": "IRIDIUM 33 DEB",
        "meta_object_id": "1997-051RD",
        "meta_epoch": "2025-12-21T13:02:16.005120",
        "meta_mean_motion": 14.47332773,
        "meta_eccentricity": 0.00191997,
        "meta_inclination": 86.3662,
        "meta_ra_of_asc_node": 17.1844,
        "meta_arg_of_pericenter": 91.7659,
        "meta_mean_anomaly": 61.4804,
        "meta_ephemeris_type": 0,
        "meta_classification_type": "U",
        "meta_norad_cat_id": 35631,
        "meta_element_set_no": 999,
        "meta_rev_at_epoch": 87324,
        "meta_bstar": 0.00027951084,
        "meta_mean_motion_dot": 1.046e-05,
        "meta_mean_motion_ddot": 0,
        "tle_line1": "1 35631U 97051RD  25355.54324080  .00001046  00000+0  27951-3 0  9993",
        "tle_line2": "2 35631  86.3662  17.1844 0019199  91.7659  61.4804 14.47332773873240"
      },
      "geometry": {
        "type": "Point",
        "coordinates": [
          16.328707297650265,
          -11.64245889756121
        ]
      }
    },
    {
      "type": "Feature",
      "properties": {
        "norad_id": 35680,
        "name": "IRIDIUM 33 DEB",
        "group": "iridium-33-debris",
        "lat": -1.6596766938376526,
        "lon": -162.37002349143364,
        "alt_km": 783.0186836848225,
        "timestamp": "2025-12-21T18:54:58.881226+00:00",
        "meta_object_name": "IRIDIUM 33 DEB",
        "meta_object_id": "1997-051RJ",
        "meta_epoch": "2025-12-21T07:58:47.283744",
        "meta_mean_motion": 14.2104558,
        "meta_eccentricity": 0.0150556,
        "meta_inclination": 86.1025,
        "meta_ra_of_asc_node": 17.7185,
        "meta_arg_of_pericenter": 250.9856,
        "meta_mean_anomaly": 122.3959,
        "meta_ephemeris_type": 0,
        "meta_classification_type": "U",
        "meta_norad_cat_id": 35680,
        "meta_element_set_no": 999,
        "meta_rev_at_epoch": 60823,
        "meta_bstar": 0.0026505,
        "meta_mean_motion_dot": 6.465e-05,
        "meta_mean_motion_ddot": 0,
        "tle_line1": "1 35680U 97051RJ  25355.33249171  .00006465  00000+0  26505-2 0  9994",
        "tle_line2": "2 35680  86.1025  17.7185 0150556 250.9856 122.3959 14.21045580608232"
      },
      "geometry": {
        "type": "Point",
        "coordinates": [
          -162.37002349143364,
          -1.6596766938376526
        ]
      }
    }
  ]
}